[{"OBJECT_NAME":"CORVUS BC4","OBJECT_ID":"2018-099K","EPOCH":"2026-03-09T15:49:18.108768","MEAN_MOTION":15.1161571,"ECCENTRICITY":0.00080458,"INCLINATION":97.4206,"RA_OF_ASC_NODE":114.5457,"ARG_OF_PERICENTER":356.5821,"MEAN_ANOMALY":3.5354,"EPHEMERIS_TYPE":0,"CLASSIFICATION_TYPE":"U","NORAD_CAT_ID":43767,"ELEMENT_SET_NO":999,"REV_AT_EPOCH":39736,"BSTAR":0.00033979895,"MEAN_MOTION_DOT":5.714e-5,"MEAN_MOTION_DDOT":0},{"OBJECT_NAME":"STARLINK-4166","OBJECT_ID":"2022-086BB","EPOCH":"2026-03-09T12:41:30.097248","MEAN_MOTION":15.08836395,"ECCENTRICITY":0.00012352,"INCLINATION":53.2178,"RA_OF_ASC_NODE":179.631,"ARG_OF_PERICENTER":84.9193,"MEAN_ANOMALY":275.194,"EPHEMERIS_TYPE":0,"CLASSIFICATION_TYPE":"U","NORAD_CAT_ID":53291,"ELEMENT_SET_NO":999,"REV_AT_EPOCH":20123,"BSTAR":2.4432e-6,"MEAN_MOTION_DOT":-2.49e-6,"MEAN_MOTION_DDOT":0}]
